
stk.v.11.0
BEGIN Ephemeris
NumberOfEphemerisPoints 1756
ScenarioEpoch 01 Jan 1970 00:00:00.000000
CentralBody Sun
CoordinateSystem ICRF
DistanceUnit Meters
EphemerisTimePosVel
7.3137599800000000e+08 -1.7063188562792700e+11  1.6093512793600000e+11  7.8431384317427994e+10 -1.6612692795999999e+04 -1.3492664892999999e+04 -5.7392650850000000e+03
7.3223999800000000e+08 -1.8441283310254300e+11  1.4876491063889700e+11  7.3222082463725998e+10 -1.5272134850000000e+04 -1.4662229271000000e+04 -6.3119697729999998e+03
7.3310399800000000e+08 -1.9699647648374701e+11  1.3562857240100101e+11  6.7537264160100998e+10 -1.3842481592000000e+04 -1.5728412374000000e+04 -6.8396665659999999e+03
7.3396799800000000e+08 -2.0830925692167599e+11  1.2161706280897000e+11  6.1416655469200996e+10 -1.2331629414000001e+04 -1.6687489683000000e+04 -7.3204336359999998e+03
7.3483199800000000e+08 -2.1828439419813101e+11  1.0682444229059700e+11  5.4901592623765999e+10 -1.0747379977000001e+04 -1.7535975890999998e+04 -7.7524613440000003e+03
7.3569599800000000e+08 -2.2686182328682599e+11  9.1347696856927002e+10  4.8034935403241997e+10 -9.0974838249999993e+03 -1.8270576937000002e+04 -8.1340291029999998e+03
7.3655999800000000e+08 -2.3398817119886600e+11  7.5286590025337997e+10  4.0860998602405998e+10 -7.3896899370000001e+03 -1.8888152002999999e+04 -8.4634866889999994e+03
7.3742399800000000e+08 -2.3961677855127701e+11  5.8743543130152000e+10  3.3425497598792000e+10 -5.6317990339999997e+03 -1.9385685601000001e+04 -8.7392402419999999e+03
7.3828799800000000e+08 -2.4370776782760501e+11  4.1823537205803001e+10  2.5775504883401001e+10 -3.8317194810000001e+03 -1.9760263885000000e+04 -8.9597398670000002e+03
7.3915199800000000e+08 -2.4622816759035300e+11  2.4634033207167999e+10  1.7959417151686001e+10 -1.9975435590000000e+03 -2.0009060920000000e+04 -9.1234699880000007e+03
7.4001599800000000e+08 -2.4715210430600699e+11  7.2848896373719997e+09  1.0026923406216999e+10 -1.3761828499999999e+02 -2.0129355847999999e+04 -9.2289562440000009e+03
7.4087999800000000e+08 -2.4646104658829099e+11 -1.0111733613180000e+10  2.0289670233520000e+09  1.7393961019999999e+03 -2.0118543923000001e+04 -9.2747697200000002e+03
7.4174399700000000e+08 -2.4414410776190799e+11 -2.7441483241960999e+10 -5.9822958927729998e+09  3.6244508259999998e+03 -1.9974157994000001e+04 -9.2595341840000001e+03
7.4260799700000000e+08 -2.4019841466105801e+11 -4.4587947904392998e+10 -1.3953548617750000e+10  5.5080323820000003e+03 -1.9693909282000001e+04 -9.1819426050000002e+03
7.4347199700000000e+08 -2.3462954124143100e+11 -6.1432835377689003e+10 -2.1830383312473999e+10  7.3800886209999999e+03 -1.9275743316000000e+04 -9.0407808409999998e+03
7.4433599700000000e+08 -2.2745200488688699e+11 -7.7856205057552002e+10 -2.9557394255561001e+10  9.2299579329999997e+03 -1.8717912455000002e+04 -8.8349590719999997e+03
7.4519999700000000e+08 -2.1868982110910199e+11 -9.3736770836587997e+10 -3.7078301925723999e+10  1.1046305953999999e+04 -1.8019066056000000e+04 -8.5635517089999994e+03
7.4606399700000000e+08 -2.0837710864204001e+11 -1.0895228751504401e+11 -4.4336114145851997e+10  1.2817070369999999e+04 -1.7178352515999999e+04 -8.2258424040000009e+03
7.4692799700000000e+08 -1.9655874476941800e+11 -1.2338003409781900e+11 -5.1273329467216003e+10  1.4529400492999999e+04 -1.6195547887000001e+04 -7.8213802290000003e+03
7.4779199700000000e+08 -1.8329106112595599e+11 -1.3689742669981100e+11 -5.7832198947872002e+10  1.6169632261999999e+04 -1.5071221084000001e+04 -7.3500561410000000e+03
7.4865599700000000e+08 -1.6864254540491501e+11 -1.4938277502232901e+11 -6.3955054632750999e+10  1.7723291792000000e+04 -1.3806900940000000e+04 -6.8121799830000000e+03
7.4951999700000000e+08 -1.5269453441282800e+11 -1.6071619206057101e+11 -6.9584708236412003e+10  1.9175116088999999e+04 -1.2405266981000001e+04 -6.2085680179999999e+03
7.5038399700000000e+08 -1.3554187282145100e+11 -1.7078067940202399e+11 -7.4664931047093002e+10  2.0509113914000001e+04 -1.0870363318000000e+04 -5.5406426090000004e+03
7.5124799700000000e+08 -1.1729349888455099e+11 -1.7946340428841501e+11 -7.9141023767397003e+10  2.1708675153000000e+04 -9.2078276960000003e+03 -4.8105402809999996e+03
7.5211199700000000e+08 -9.8072911681330994e+10 -1.8665717894930801e+11 -8.2960482402203003e+10  2.2756737439000000e+04 -7.4251294479999997e+03 -4.0212254929999999e+03
7.5297599700000000e+08 -7.8018465439158005e+10 -1.9226214585050000e+11 -8.6073763457520996e+10  2.3636021827000000e+04 -5.5318055180000001e+03 -3.1766055630000001e+03
7.5383999700000000e+08 -5.7283428813348999e+10 -1.9618765864462100e+11 -8.8435145251195007e+10  2.4329338792999999e+04 -3.5396745879999999e+03 -2.2816365350000001e+03
7.5470399700000000e+08 -3.6035753664669998e+10 -1.9835433933767899e+11 -9.0003676980296005e+10  2.4819958778000000e+04 -1.4630338890000000e+03 -1.3424226710000000e+03
7.5556799700000000e+08 -1.4457479370039000e+10 -1.9869629207729800e+11 -9.0744209981953995e+10  2.5092088715000002e+04  6.8118724499999996e+02 -3.6630134500000003e+02
7.5643199700000000e+08  7.2563103475179996e+09 -1.9716341058061401e+11 -9.0628484834345993e+10  2.5131422640000001e+04  2.8733648570000000e+03  6.3811347000000001e+02
7.5729599700000000e+08  2.8899030428798000e+10 -1.9372370129756201e+11 -8.9636238824067001e+10  2.4925749061999999e+04  5.0912089839999999e+03  1.6609282840000001e+03
7.5815999700000000e+08  5.0254684659961998e+10 -1.8836553293201700e+11 -8.7756294279973007e+10  2.4465605942999999e+04  7.3099105369999997e+03  2.6910198059999998e+03
7.5902399700000000e+08  7.1100530911440994e+10 -1.8109969865013000e+11 -8.4987576497255997e+10  2.3744950670999999e+04  9.5024313729999994e+03  3.7161499279999998e+03
7.5988799700000000e+08  9.1210317701664001e+10 -1.7196115999701999e+11 -8.1340001124307007e+10  2.2761805724000002e+04  1.1639952555000000e+04  4.7231537539999999e+03
7.6075199700000000e+08  1.1035805242354401e+11 -1.6101033321538901e+11 -7.6835166275235001e+10  2.1518835311999999e+04  1.3692485726999999e+04  5.6982040809999999e+03
7.6161599700000000e+08  1.2832221521021300e+11 -1.4833377785229700e+11 -7.1506782430709000e+10  2.0023786633000000e+04  1.5629641202000001e+04  6.6271526340000000e+03
7.6247999700000000e+08  1.4489027247085300e+11 -1.3404417187245799e+11 -6.5400782335278999e+10  1.8289740602999998e+04  1.7421501665000000e+04  7.4959242759999997e+03
7.6334399700000000e+08  1.5986332359043799e+11 -1.1827949532386200e+11 -5.8575072326485001e+10  1.6335161603000000e+04  1.9039580936999999e+04  8.2909539760000007e+03
7.6420799700000000e+08  1.7306067834071399e+11 -1.0120136225940700e+11 -5.1098891550399002e+10  1.4183679016000000e+04  2.0457820890999999e+04  8.9996503790000006e+03
7.6507199700000000e+08  1.8432412576033401e+11 -8.2992507975020004e+10 -4.3051774973139000e+10  1.1863595024000000e+04  2.1653538034000001e+04  9.6108436070000007e+03
7.6593599700000000e+08  1.9352166719488901e+11 -6.3853503509938004e+10 -3.4522147360102997e+10  9.4071407290000006e+03  2.2608254986000000e+04  1.0115186769000000e+04
7.6679999700000000e+08  2.0055051059690399e+11 -4.3998824333281998e+10 -2.5605601073807999e+10  6.8495184259999996e+03  2.3308354088000000e+04  1.0505481608000000e+04
7.6766399700000000e+08  2.0533916659898001e+11 -2.3652450110250000e+10 -1.6402934578259001e+10  4.2277922570000001e+03  2.3745502514000000e+04  1.0776903316000000e+04
7.6852799700000000e+08  2.0784854876362601e+11 -3.0432059847900000e+09 -7.0180456735260000e+09  1.5797056250000001e+03  2.3916824279000000e+04  1.0927111230000000e+04
7.6939199700000000e+08  2.0807204523965399e+11  1.7599934539910000e+10  2.4442211139070001e+09 -1.0575073860000000e+03  2.3824815140999999e+04  1.0956243167000001e+04
7.7025599700000000e+08  2.0603459119102301e+11  3.8052357270639999e+10  1.1880167988827000e+10 -3.6482253160000000e+03  2.3476993157000001e+04  1.0866784635000000e+04
7.7111999700000000e+08  2.0179086082113901e+11  5.8097923863775002e+10  2.1189180686769001e+10 -6.1593701010000004e+03  2.2885357753000000e+04  1.0663344735000001e+04
7.7198399700000000e+08  1.9542273220430099e+11  7.7532557971533997e+10  3.0275441529412998e+10 -8.5611551330000002e+03  2.2065706834000001e+04  1.0352363699000000e+04
7.7284799700000000e+08  1.8703619849504099e+11  9.6167194916063995e+10  3.9049365894313004e+10 -1.0827614060000000e+04  2.1036857401000001e+04  9.9417699200000006e+03
7.7371199600000000e+08  1.7675792062201599e+11  1.1383004010895500e+11  4.7428731373286003e+10 -1.2936903477000000e+04  1.9819834731999999e+04  9.4406162170000007e+03
7.7457599600000000e+08  1.6473161040643799e+11  1.3036813280710899e+11  5.5339492857211998e+10 -1.4871396712000000e+04  1.8437082958999999e+04  8.8587202109999998e+03
7.7543999600000000e+08  1.5111441319144299e+11  1.4564825224673401e+11  6.2716295878705002e+10 -1.6617596266000000e+04  1.6911738313999998e+04  8.2063283869999996e+03
7.7630399600000000e+08  1.3607343212764000e+11  1.5955723565679300e+11  6.9502716184451996e+10 -1.8165901257000001e+04  1.5266999865000000e+04  7.4938212039999999e+03
7.7716799600000000e+08  1.1978249487137900e+11  1.7200180043198300e+11  7.5651265960065002e+10 -1.9510288078000001e+04  1.3525607647000001e+04  6.7314663629999995e+03
7.7803199600000000e+08  1.0241922729361800e+11  1.8290795442500601e+11  8.1123203187410004e+10 -2.0647915639999999e+04  1.1709414223000000e+04  5.9292106759999997e+03
7.7889599600000000e+08  8.4162494336858994e+10  1.9222009014908801e+11  8.5888184980410004e+10 -2.1578683733000002e+04  9.8390837400000000e+03  5.0965293609999999e+03
7.7975999600000000e+08  6.5190219208644997e+10  1.9989986579191000e+11  8.9923813031985992e+10 -2.2304801641999999e+04  7.9338925929999996e+03  4.2423235059999997e+03
7.8062399600000000e+08  4.5677569067983002e+10  2.0592494957161401e+11  9.3215106770518005e+10 -2.2830372533999998e+04  6.0116113679999999e+03  3.3748547979999998e+03
END Ephemeris